{
  "norad_id": 64834,
  "name": "KUIPER-00089",
  "history": [
    {
      "epoch": "2026-03-28T17:14:29.606208Z",
      "apogee_km": 629.7797784772747,
      "perigee_km": 629.1807673527846,
      "latitude_deg": 2.3452595747190954e-05,
      "longitude_deg": 116.68663763816271,
      "height_km": 630.4045382421195,
      "semi_major_axis_km": 7007.617272915029,
      "eccentricity": 4.274e-05,
      "inclination_deg": 51.8986,
      "raan_deg": 201.4448,
      "arg_perigee_deg": 126.4896,
      "mean_anomaly_deg": 233.6106,
      "mean_motion_rev_day": 14.79950536
    }
  ]
}