{"fetched_at":"2026-03-30T06:02:59Z","count":15439,"tles":[{"name":"KUIPER-00089","line1":"1 64834U 25151U   26087.71839822  .00004801  00000+0  65804-3 0  9990","line2":"2 64834  51.8986 201.4448 0000427 126.4896 233.6106 14.79950536 38333","category":"Other"}]}